#aV2012  2  9  0  0   .00000000      96 DD+AD WGS84 FIT  NGA
## 1674 345600.00000000   900.00000000 55966  .0000000000000
+   32     1  2  3  4  5  6  7  8  9 10 11 12 13 14 15 16 17
+         18 19 20 21 22 23 24 25 26 27 28 29 30 31 32  0  0
+          0  0  0  0  0  0  0  0  0  0  0  0  0  0  0  0  0
+          0  0  0  0  0  0  0  0  0  0  0  0  0  0  0  0  0
+          0  0  0  0  0  0  0  0  0  0  0  0  0  0  0  0  0
++         0  0  0  0  0  0  0  0  0  0  0  0  0  0  0  0  0
++         0  0  0  0  0  0  0  0  0  0  0  0  0  0  0  0  0
++         0  0  0  0  0  0  0  0  0  0  0  0  0  0  0  0  0
++         0  0  0  0  0  0  0  0  0  0  0  0  0  0  0  0  0
++         0  0  0  0  0  0  0  0  0  0  0  0  0  0  0  0  0
%c cc cc ccc ccc cccc cccc cccc cccc ccccc ccccc ccccc ccccc
%c cc cc ccc ccc cccc cccc cccc cccc ccccc ccccc ccccc ccccc
%f  0.0000000  0.000000000  0.00000000000  0.000000000000000
%f  0.0000000  0.000000000  0.00000000000  0.000000000000000
%i    0    0    0    0      0      0      0      0         0
%i    0    0    0    0      0      0      0      0         0
/*      NGA, ST. LOUIS,MO.                                  
/*   EPHEMERIS COMPUTED FROM  3 DAYS OF DATA                
/* CCCCCCCCCCCCCCCCCCCCCCCCCCCCCCCCCCCCCCCCCCCCCCCCCCCCCCCCC
/* CCCCCCCCCCCCCCCCCCCCCCCCCCCCCCCCCCCCCCCCCCCCCCCCCCCCCCCCC
*  2012  2  9 13  0   .00000000                                                 
P  1  22151.193569  13853.972229  -4844.000007    206.367437                    
V  1  -6718.485673    -46.484254 -30937.691466       .103216                    
P  2  -2176.500862 -17230.422007  20312.062870    378.269524                    
V  2  23707.450820   9529.839730  10170.712861       .015690                    
P  3  -3937.851950  20520.790486 -16691.842999      7.305407                    
V  3 -16755.413803  12140.919887  19700.362565       .049548                    
P  4  11052.304161 -11765.300518  20892.958570     88.800216                    
V  4  24376.839395  11915.714974  -5791.413788       .115022                    
P  5  -2014.814148 -26408.612268    519.882737   -280.717849                    
V  5   3279.598586    399.873278  31617.085347      -.044925                    
P  6  -9283.915791  20371.455069 -13946.347998     29.405478                    
V  6 -16009.170329   8933.381889  23758.462974       .016544                    
P  7  24646.564814   5288.800240  -8727.021195     55.874813                    
V  7   9083.805036   6549.740495  29311.209906       .027370                    
P  8  19323.237888  -2364.287113 -18272.253633       .596807                    
V  8  19561.653756  12174.707279  18497.096969       .001281                    
P  9 -19597.759281 -15589.979028  -9350.060517    137.408162                    
V  9  10832.661429   2910.881190 -29312.466797       .024272                    
P 10  10512.821687 -17777.990596  16226.784779    -28.453148                    
V 10   3891.616433  21052.024986  20629.046773      -.012345                    
P 11  19217.953488  13770.134202 -12781.735018   -230.849592                    
V 11 -16134.575154    992.246865 -23561.808329      -.035957                    
P 12 -11240.709715 -19112.868143  14764.283068     51.462187                    
V 12    319.091967 -18689.505728 -23784.246598       .021711                    
P 13  22743.638479  -2957.603883  13326.131750    225.970966                    
V 13 -14014.873633   9884.102168  25758.438108      -.021540                    
P 14 -20593.201937  16097.039792   4452.249097    193.241916                    
V 14  -5820.798600    916.912233 -31604.214867       .013844                    
P 15 -10264.256720 -11694.194840 -21536.781618    -93.281059                    
V 15  22031.548644 -16256.178637  -1467.518216       .005333                    
P 16    495.017519  26360.719948   1168.445047   -222.640865                    
V 16  -2568.560193  -1351.004825  32313.842014      -.016736                    
P 17  21677.138089 -15085.038317   1137.813592    149.774443                    
V 17   2669.674460   1791.796485 -31915.222422      -.022727                    
P 18 -15691.032413    856.464431 -21070.658332    180.788231                    
V 18  -2261.462622 -27592.451339    193.351431       .018098                    
P 19   6581.278353  13779.222397 -21754.517079   -234.147251                    
V 19 -24000.766821  13542.310099   1688.943534      -.038457                    
P 20  13961.486095  16084.730280  15751.750542     61.596548                    
V 20    155.597100  20514.358440 -20797.431837       .007159                    
P 21 -23905.384633  -1761.299095 -11589.771733   -203.240342                    
V 21 -12604.589236  -9072.609665  25745.677355      -.025087                    
P 22 -11310.267844  17020.332287 -16732.882890    142.957067                    
V 22  -4074.475638 -21485.917608 -19018.423280       .001607                    
P 23  17018.155592   5161.580015  19865.435988    234.471186                    
V 23 -20144.326708  14930.432925  13040.942774      -.033923                    
P 24  -8407.230977  20219.002033  14793.149561   -255.587786                    
V 24  -3571.821873 -18808.145118  23634.984684       .002002                    
P 25 -15081.735557  -6742.310572  20785.157020     31.550337                    
V 25  -1835.222015 -26362.020677  -9826.097856       .002177                    
P 26   3967.885900 -17637.845328 -19927.891056   -331.760451                    
V 26  21277.174668 -11271.351148  15046.155170      -.150076                    
P 27 -14999.309840 -16485.431356 -14149.067066    354.991608                    
V 27  17988.364733   5838.739682 -24338.110140       .039622                    
P 28  11956.005705 -13913.094972 -18568.459548    111.034766                    
V 28   2486.583946  24698.668868 -16647.779549       .037581                    
P 29 -21942.719355   1749.056777  14900.167310    283.038861                    
V 29  14760.726233 -11838.674716  23269.931627       .035510                    
P 30  -3180.467431  23869.842520  10840.937844    -38.902177                    
V 30  -5260.808902 -13557.230010  27425.195673      -.137594                    
P 31  -9409.577304  11848.392128  22050.197904    206.040801                    
V 31 -24631.372599 -12073.350644  -3830.256196       .046781                    
P 32   7892.544506  23193.594914  11048.955334   -405.011109                    
V 32  -2245.322921  13551.082286 -26940.655791      -.054193                    
EOF
